STARLINK-3130
1 19437C 21104AF  21326.14711802 -.00823965  00000-0 -30431-2 0  3265
2 19437  53.2176  90.8213 0025415  65.1011 236.6831 15.87717124    10
